OBJECT_NAME,OBJECT_ID,EPOCH,MEAN_MOTION,ECCENTRICITY,INCLINATION,RA_OF_ASC_NODE,ARG_OF_PERICENTER,MEAN_ANOMALY,EPHEMERIS_TYPE,CLASSIFICATION_TYPE,NORAD_CAT_ID,ELEMENT_SET_NO,REV_AT_EPOCH,BSTAR,MEAN_MOTION_DOT,MEAN_MOTION_DDOT
ATLAS CENTAUR 2,1963-047A,2026-06-03T22:11:25.494432,14.12483761,.05461056,30.3524,73.5605,120.5321,245.0333,0,U,694,999,14382,.26664783E-3,.2275E-4,0
THOR AGENA D R/B,1964-002A,2026-06-04T16:01:47.763552,14.34060373,.00329901,99.1158,173.7244,7.3011,352.8645,0,U,733,999,25076,.99409074E-4,.231E-5,0
SL-3 R/B,1964-053B,2026-06-04T02:56:32.894016,14.61420437,.00812124,65.0771,77.8186,265.1914,93.9909,0,U,877,999,27942,.67954364E-4,.227E-5,0
SL-8 R/B,1967-045B,2026-06-04T06:48:45.650880,14.45676458,.0063977,74.0097,186.3583,173.9989,186.1950,0,U,2802,999,10153,.89386E-4,.296E-5,0
SL-8 R/B,1968-040B,2026-06-04T01:50:58.595712,15.03745503,.00258988,74.0290,137.1011,292.5320,67.3127,0,U,3230,999,10299,.24250191E-3,.331E-4,0
OAO 2,1968-110A,2026-06-01T09:28:31.720512,14.47345232,.00052776,34.9918,157.8581,154.0049,206.0907,0,U,3597,999,3123,.56565054E-4,.191E-5,0
ISIS 1,1969-009A,2026-06-01T08:22:34.761216,11.30431426,.17059018,88.4416,146.1407,280.2415,61.1375,0,U,3669,999,35798,.62039084E-4,.83E-6,0
SERT 2,1970-009A,2026-06-04T17:40:24.197952,13.58738313,.00041855,99.2839,94.1178,311.7957,108.0094,0,U,4327,999,79171,.6528703E-4,.6E-7,0
SL-3 R/B,1971-028B,2026-06-04T17:56:48.327648,15.68539850,.00136379,81.2334,303.8956,326.9774,33.0630,0,U,5118,999,229,.42496726E-3,.48497E-3,0
ASTEX 1,1971-089A,2026-06-04T02:32:32.640576,14.50841372,.0016819,92.7002,179.6426,145.4389,214.7914,0,U,5560,999,87483,.11589E-3,.457E-5,0
SL-8 R/B,1971-119B,2026-06-04T15:31:50.132928,14.39413641,.05438804,73.8874,12.9674,321.4645,34.8818,0,U,5730,999,66799,.28378516E-3,.5522E-4,0
OAO 3 (COPERNICUS),1972-065A,2026-06-01T10:59:41.757216,14.60050941,.00061227,35.0042,180.0292,129.0606,28.8220,0,U,6153,999,85844,.64019879E-4,.291E-5,0
ATLAS CENTAUR R/B,1972-065B,2026-06-02T08:20:53.953152,14.77888301,.00334726,35.0000,169.5370,1.9225,358.1599,0,U,6155,999,85379,.14824681E-3,.107E-4,0
SL-8 R/B,1975-112B,2026-06-04T05:48:46.856736,14.38240263,.00167541,74.0606,219.6879,288.1621,71.7709,0,U,8459,999,64431,.7757705E-4,.21E-5,0
SL-3 R/B,1977-057B,2026-06-04T20:50:44.665728,15.47613814,.00061665,97.5839,331.8155,338.5795,21.5196,0,U,10114,999,68180,.24159805E-3,.12373E-3,0
SEASAT 1,1978-064A,2026-06-04T05:39:41.967360,14.46232916,.00021724,108.0160,307.1033,242.3783,117.7142,0,U,10967,999,51902,.14528214E-3,.383E-5,0
SL-14 R/B,1979-011B,2026-06-04T02:20:47.829984,14.92002216,.0017261,82.5245,14.5770,125.6835,234.5994,0,U,11267,999,54166,.57812E-4,.613E-5,0
SL-8 R/B,1979-089B,2026-06-04T17:17:50.284032,14.42398212,.00148205,74.0694,289.9347,78.7956,281.4865,0,U,11574,999,44865,.94257256E-4,.286E-5,0
SL-14 R/B,1980-005B,2026-06-04T15:17:54.693312,14.91018661,.001448,82.5151,224.7439,229.6420,130.3535,0,U,11672,999,48944,.58964476E-4,.609E-5,0
SL-8 R/B,1981-003B,2026-06-04T06:20:18.908736,15.13835146,.02506953,82.9378,209.7759,236.5396,121.1649,0,U,12139,999,32776,.37853464E-3,.15264E-3,0
SL-3 R/B,1981-046B,2026-06-04T21:02:12.174720,15.43936599,.00194234,81.2297,184.8957,78.2340,282.1081,0,U,12465,999,45187,.25023915E-3,.11493E-3,0
SL-3 R/B,1981-103B,2026-06-04T21:26:22.563744,15.22175876,.0012742,81.1580,111.0743,359.8787,0.2439,0,U,12904,999,98649,.2621768E-3,.6054E-4,0
SL-3 R/B,1982-013B,2026-06-04T20:51:21.013344,15.22707241,.00206444,81.1745,58.5154,244.2153,115.6949,0,U,13068,999,41761,.19659872E-3,.4634E-4,0
SL-3 R/B,1982-039B,2026-06-04T21:53:44.675232,15.10462913,.00302265,81.1420,115.2715,35.8409,324.4837,0,U,13154,999,39480,.22130987E-3,.3703E-4,0
SL-3 R/B,1982-079B,2026-06-04T22:01:43.824576,15.25681596,.00227669,81.1461,89.9978,228.1789,131.7501,0,U,13403,999,39099,.19952971E-3,.5144E-4,0
SL-14 R/B,1982-092B,2026-06-04T17:38:14.146944,14.86738593,.00207766,82.5687,59.9542,16.8313,39.6260,0,U,13553,999,34186,.57609615E-4,.539E-5,0
SL-3 R/B,1983-010B,2026-06-04T17:18:48.107232,15.48882753,.00160258,81.1025,255.3130,104.0540,256.2489,0,U,13819,999,37140,.30116186E-3,.16352E-3,0
SL-3 R/B,1983-075B,2026-06-04T20:33:05.875200,15.40260489,.00187838,97.6106,163.8591,277.5517,82.3595,0,U,14208,999,34356,.26740691E-3,.10738E-3,0
COSMOS 1536,1984-013A,2026-06-04T16:41:12.367392,15.24919427,.00136188,82.5448,21.2861,343.2651,16.8135,0,U,14699,999,28587,.27143651E-3,.6805E-4,0
SL-14 R/B,1984-027B,2026-06-04T02:02:11.493600,14.86049654,.0019175,82.5407,164.0044,50.8104,309.4812,0,U,14820,999,26046,.54576249E-4,.503E-5,0
