ATLAS CENTAUR 2         
1 00694U 63047A   26154.92460063  .00002275  00000+0  26665-3 0  9990
2 00694  30.3524  73.5605 0546105 120.5321 245.0333 14.12483761143824
THOR AGENA D R/B        
1 00733U 64002A   26155.66791393  .00000231  00000+0  99409-4 0  9998
2 00733  99.1158 173.7244 0032990   7.3011 352.8645 14.34060373250765
SL-3 R/B                
1 00877U 64053B   26155.12260294  .00000227  00000+0  67954-4 0  9990
2 00877  65.0771  77.8186 0081212 265.1914  93.9909 14.61420437279424
SL-8 R/B                
1 02802U 67045B   26155.28386170  .00000296  00000+0  89386-4 0  9992
2 02802  74.0097 186.3583 0063977 173.9989 186.1950 14.45676458101533
SL-8 R/B                
1 03230U 68040B   26155.07706708  .00003310  00000+0  24250-3 0  9992
2 03230  74.0290 137.1011 0025898 292.5320  67.3127 15.03745503102991
OAO 2                   
1 03597U 68110A   26152.39481158  .00000191  00000+0  56565-4 0  9996
2 03597  34.9918 157.8581 0005277 154.0049 206.0907 14.47345232 31237
ISIS 1                  
1 03669U 69009A   26152.34901344  .00000083  00000+0  62039-4 0  9996
2 03669  88.4416 146.1407 1705901 280.2415  61.1375 11.30431426357985
SERT 2                  
1 04327U 70009A   26155.73639118  .00000006  00000+0  65287-4 0  9996
2 04327  99.2839  94.1178 0004185 311.7957 108.0094 13.58738313791718
SL-3 R/B                
1 05118U 71028B   26155.74778157  .00048497  00000+0  42497-3 0  9998
2 05118  81.2334 303.8956 0013637 326.9774  33.0630 15.68539850  2298
ASTEX 1                 
1 05560U 71089A   26155.10593334  .00000457  00000+0  11589-3 0  9990
2 05560  92.7002 179.6426 0016819 145.4389 214.7914 14.50841372874835
SL-8 R/B                
1 05730U 71119B   26155.64710802  .00005522  00000+0  28379-3 0  9996
2 05730  73.8874  12.9674 0543880 321.4645  34.8818 14.39413641667991
OAO 3 (COPERNICUS)      
1 06153U 72065A   26152.45812219  .00000291  00000+0  64020-4 0  9990
2 06153  35.0042 180.0292 0006122 129.0606  28.8220 14.60050941858449
ATLAS CENTAUR R/B       
1 06155U 72065B   26153.34784668  .00001070  00000+0  14825-3 0  9990
2 06155  35.0000 169.5370 0033472   1.9225 358.1599 14.77888301853795
SL-8 R/B                
1 08459U 75112B   26155.24220899  .00000210  00000+0  77577-4 0  9996
2 08459  74.0606 219.6879 0016754 288.1621  71.7709 14.38240263644316
SL-3 R/B                
1 10114U 77057B   26155.86857252  .00012373  00000+0  24160-3 0  9996
2 10114  97.5839 331.8155 0006166 338.5795  21.5196 15.47613814681802
SEASAT 1                
1 10967U 78064A   26155.23590240  .00000383  00000+0  14528-3 0  9998
2 10967 108.0160 307.1033 0002172 242.3783 117.7142 14.46232916519027
SL-14 R/B               
1 11267U 79011B   26155.09777581  .00000613  00000+0  57812-4 0  9994
2 11267  82.5245  14.5770 0017261 125.6835 234.5994 14.92002216541661
SL-8 R/B                
1 11574U 79089B   26155.72072088  .00000286  00000+0  94257-4 0  9990
2 11574  74.0694 289.9347 0014820  78.7956 281.4865 14.42398212448656
SL-14 R/B               
1 11672U 80005B   26155.63743858  .00000609  00000+0  58964-4 0  9993
2 11672  82.5151 224.7439 0014480 229.6420 130.3535 14.91018661489440
SL-8 R/B                
1 12139U 81003B   26155.26410774  .00015264  00000+0  37853-3 0  9994
2 12139  82.9378 209.7759 0250695 236.5396 121.1649 15.13835146327761
SL-3 R/B                
1 12465U 81046B   26155.87652980  .00011493  00000+0  25024-3 0  9994
2 12465  81.2297 184.8957 0019423  78.2340 282.1081 15.43936599451875
SL-3 R/B                
1 12904U 81103B   26155.89331671  .00006054  00000+0  26218-3 0  9992
2 12904  81.1580 111.0743 0012742 359.8787   0.2439 15.22175876986499
SL-3 R/B                
1 13068U 82013B   26155.86899321  .00004634  00000+0  19660-3 0  9998
2 13068  81.1745  58.5154 0020644 244.2153 115.6949 15.22707241417616
SL-3 R/B                
1 13154U 82039B   26155.91232263  .00003703  00000+0  22131-3 0  9997
2 13154  81.1420 115.2715 0030226  35.8409 324.4837 15.10462913394803
SL-3 R/B                
1 13403U 82079B   26155.91786834  .00005144  00000+0  19953-3 0  9995
2 13403  81.1461  89.9978 0022766 228.1789 131.7501 15.25681596390990
SL-14 R/B               
1 13553U 82092B   26155.73488596  .00000539  00000+0  57610-4 0  9996
2 13553  82.5687  59.9542 0020776  16.8313  39.6260 14.86738593341865
SL-3 R/B                
1 13819U 83010B   26155.72139013  .00016352  00000+0  30116-3 0  9999
2 13819  81.1025 255.3130 0016025 104.0540 256.2489 15.48882753371400
SL-3 R/B                
1 14208U 83075B   26155.85631800  .00010738  00000+0  26741-3 0  9999
2 14208  97.6106 163.8591 0018783 277.5517  82.3595 15.40260489343562
COSMOS 1536             
1 14699U 84013A   26155.69528203  .00006805  00000+0  27144-3 0  9998
2 14699  82.5448  21.2861 0013618 343.2651  16.8135 15.24919427285873
SL-14 R/B               
1 14820U 84027B   26155.08485525  .00000503  00000+0  54576-4 0  9990
2 14820  82.5407 164.0044 0019175  50.8104 309.4812 14.86049654260465
